ONEWEB-0275             
1 48993U 21060AC  24157.11911611  .00000114  00000+0  26400-3 0  9992
2 48993  87.9112  16.5004 0002025  84.5739 275.5622 13.16592888141910
ONEWEB-0276             
1 48994U 21060AD  24157.83633859  .00000113  00000+0  26089-3 0  9999
2 48994  87.9114  16.3539 0002128  83.1968 276.9405 13.16592845142027
ONEWEB-0277             
1 48995U 21060AE  24157.84900470  .00000121  00000+0  28215-3 0  9999
2 48995  87.9113  16.3895 0002331  88.6463 271.4935 13.16592638142015
ONEWEB-0278             
1 48996U 21060AF  24157.83950867  .00000155  00000+0  37276-3 0  9998
2 48996  87.9115  16.3502 0001785  74.4828 285.6500 13.16593598142148
ONEWEB-0279             
1 48997U 21060AG  24157.84742206  .00000048  00000+0  93015-4 0  9991
2 48997  87.9115  16.3464 0002284  90.1819 269.9574 13.16592612142070
ONEWEB-0280             
1 48998U 21060AH  24157.86167253 -.00000005  00000+0 -45423-4 0  9992
2 48998  87.9115  16.3445 0002029  78.8069 281.3290 13.16592888142019
ONEWEB-0281             
1 48999U 21060AJ  24157.86800551 -.00000015  00000+0 -73857-4 0  9991
2 48999  87.9112  16.3453 0001692  90.3569 269.7756 13.16592432142084
ONEWEB-0282             
1 49000U 21060AK  24157.89808845  .00000152  00000+0  36358-3 0  9996
2 49000  87.9115  16.3561 0002183  82.6541 277.4837 13.16592818142063
